NORAD_CAT_ID,OBJECT_NAME,OBJECT_TYPE,EPOCH,MEAN_MOTION,ECCENTRICITY,INCLINATION,RA_OF_ASC_NODE,ARG_OF_PERICENTER,MEAN_ANOMALY,BSTAR,MEAN_MOTION_DOT,MEAN_MOTION_DDOT,TLE_LINE0,TLE_LINE1,TLE_LINE2,SEMIMAJOR_AXIS,PERIOD,APOGEE,PERIGEE,DECAYED
55749.0,STARLINK-5560,PAYLOAD,2024-06-16 08:41:39,14.98329932,0.0002877,70.0007,36.2516,270.9788,89.1041,-1.2586e-05,-2.43e-06,0.0,0 STARLINK-5560,1 55749U 23028J   24168.36225751 -.00000243  00000-0 -12586-4 0  9994,2 55749  70.0007  36.2516 0002877 270.9788  89.1041 14.98329932 71476,6950.193,96.107,574.058,570.059,0.0
55749.0,STARLINK-5560,PAYLOAD,2024-06-16 21:30:43,14.98332079,0.0002923,70.0006,34.9046,268.8584,91.224,-1.7353e-05,-3e-06,0.0,0 STARLINK-5560,1 55749U 23028J   24168.89633591 -.00000300  00000-0 -17353-4 0  9998,2 55749  70.0006  34.9046 0002923 268.8584  91.2240 14.98332079 71550,6950.186,96.107,574.083,570.02,0.0
55749.0,STARLINK-5560,PAYLOAD,2024-06-17 21:32:44,14.98329423,0.0002969,70.0004,32.3783,269.1529,90.929,9.6421e-06,2.2e-07,0.0,0 STARLINK-5560,1 55749U 23028J   24169.89773692  .00000022  00000-0  96421-5 0  9999,2 55749  70.0004  32.3783 0002969 269.1529  90.9290 14.98329423 71708,6950.195,96.107,574.123,569.996,0.0
55749.0,STARLINK-5560,PAYLOAD,2024-06-18 00:45:00,14.9832947,0.0002965,70.0004,32.0417,269.2907,90.7912,1.0426e-05,3.1e-07,0.0,0 STARLINK-5560,1 55749U 23028J   24170.03125707  .00000031  00000-0  10426-4 0  9995,2 55749  70.0004  32.0417 0002965 269.2907  90.7912 14.98329470 71729,6950.195,96.107,574.12,569.999,0.0
55749.0,STARLINK-5560,PAYLOAD,2024-06-18 08:45:40,14.98331133,0.0002997,70.0004,31.2,269.0146,91.067,5.6274e-05,5.79e-06,0.0,0 STARLINK-5560,1 55749U 23028J   24170.36505465  .00000579  00000-0  56274-4 0  9992,2 55749  70.0004  31.2000 0002997 269.0146  91.0670 14.98331133 71775,6950.189,96.107,574.137,569.971,0.0
55749.0,STARLINK-5560,PAYLOAD,2024-06-18 21:34:44,14.98334997,0.0003006,70.0002,29.8538,269.8722,90.2092,8.9282e-05,9.73e-06,0.0,0 STARLINK-5560,1 55749U 23028J   24170.89913065  .00000973  00000-0  89282-4 0  9992,2 55749  70.0002  29.8538 0003006 269.8722  90.2092 14.98334997 71851,6950.177,96.107,574.132,569.953,0.0
55749.0,STARLINK-5560,PAYLOAD,2024-06-19 00:47:00,14.98335143,0.0003026,70.0002,29.5171,270.0777,90.0035,8.5576e-05,9.28e-06,0.0,0 STARLINK-5560,1 55749U 23028J   24171.03265032  .00000928  00000-0  85576-4 0  9995,2 55749  70.0002  29.5171 0003026 270.0777  90.0035 14.98335143 71878,6950.177,96.107,574.145,569.939,0.0
55749.0,STARLINK-5560,PAYLOAD,2024-06-19 20:00:38,14.98328146,0.0002939,70.0002,27.4972,270.787,89.2953,3.2299e-05,2.92e-06,0.0,0 STARLINK-5560,1 55749U 23028J   24171.83377546  .00000292  00000-0  32299-4 0  9995,2 55749  70.0002  27.4972 0002939 270.7870  89.2953 14.98328146 71994,6950.199,96.107,574.106,570.021,0.0
55749.0,STARLINK-5560,PAYLOAD,2024-06-19 21:36:46,14.98330354,0.0002927,70.0002,27.3288,271.3681,88.7143,5.5444e-06,-2.7e-07,0.0,0 STARLINK-5560,1 55749U 23028J   24171.90053506 -.00000027  00000-0  55444-5 0  9995,2 55749  70.0002  27.3288 0002927 271.3681  88.7143 14.98330354 72009,6950.192,96.107,574.091,570.022,0.0
55749.0,STARLINK-5560,PAYLOAD,2024-06-20 07:13:34,14.98330654,0.0002913,70.0002,26.3188,271.8758,88.2067,4.0774e-06,-4.4e-07,0.0,0 STARLINK-5560,1 55749U 23028J   24172.30109453 -.00000044  00000-0  40774-5 0  9992,2 55749  70.0002  26.3188 0002913 271.8758  88.2067 14.98330654 72061,6950.191,96.107,574.08,570.031,0.0
55749.0,STARLINK-5560,PAYLOAD,2024-06-20 21:38:47,14.98330501,0.0002881,70.0003,24.8046,268.1027,91.9802,-3.399e-05,-4.99e-06,0.0,0 STARLINK-5560,1 55749U 23028J   24172.90193516 -.00000499  00000-0 -33990-4 0  9997,2 55749  70.0003  24.8046 0002881 268.1027  91.9802 14.98330501 72159,6950.191,96.107,574.059,570.054,0.0
55749.0,STARLINK-5560,PAYLOAD,2024-06-20 23:14:55,14.98330703,0.0002876,70.0003,24.6363,267.9959,92.0871,-3.1111e-05,-4.64e-06,0.0,0 STARLINK-5560,1 55749U 23028J   24172.96869490 -.00000464  00000-0 -31111-4 0  9999,2 55749  70.0003  24.6363 0002876 267.9959  92.0871 14.98330703 72167,6950.191,96.107,574.055,570.057,0.0
55749.0,STARLINK-5560,PAYLOAD,2024-06-21 13:40:07,14.98331152,0.0002885,70.0002,23.1209,267.1796,92.9033,4.3244e-05,4.23e-06,0.0,0 STARLINK-5560,1 55749U 23028J   24173.56953236  .00000423  00000-0  43244-4 0  9991,2 55749  70.0002  23.1209 0002885 267.1796  92.9033 14.98331152 72258,6950.189,96.107,574.059,570.049,0.0
55749.0,STARLINK-5560,PAYLOAD,2024-06-21 21:40:47,14.98331689,0.0002892,70.0003,22.2793,267.2188,92.864,4.5648e-05,4.52e-06,0.0,0 STARLINK-5560,1 55749U 23028J   24173.90333165  .00000452  00000-0  45648-4 0  9994,2 55749  70.0003  22.2793 0002892 267.2188  92.8640 14.98331689 72305,6950.188,96.107,574.063,570.043,0.0
55749.0,STARLINK-5560,PAYLOAD,2024-06-21 23:16:55,14.98332224,0.0002885,70.0003,22.1109,267.1677,92.9152,5.1182e-05,5.18e-06,0.0,0 STARLINK-5560,1 55749U 23028J   24173.97009109  .00000518  00000-0  51182-4 0  9992,2 55749  70.0003  22.1109 0002885 267.1677  92.9152 14.98332224 72315,6950.186,96.107,574.056,570.046,0.0
55749.0,STARLINK-5560,PAYLOAD,2024-06-22 13:42:08,14.98326913,0.0002887,70.0003,20.596,266.9304,93.1525,2.3144e-05,1.83e-06,0.0,0 STARLINK-5560,1 55749U 23028J   24174.57093533  .00000183  00000-0  23144-4 0  9998,2 55749  70.0003  20.5960 0002887 266.9304  93.1525 14.98326913 72403,6950.202,96.107,574.074,570.061,0.0
55749.0,STARLINK-5560,PAYLOAD,2024-06-22 21:42:49,14.98327767,0.000289,70.0003,19.7538,264.927,95.1559,3.1779e-05,2.86e-06,0.0,0 STARLINK-5560,1 55749U 23028J   24174.90473462  .00000286  00000-0  31779-4 0  9995,2 55749  70.0003  19.7538 0002890 264.9270  95.1559 14.98327767 72450,6950.2,96.107,574.073,570.056,0.0
55749.0,STARLINK-5560,PAYLOAD,2024-06-23 13:44:09,14.98333207,0.0002971,70.0001,18.0706,265.5835,94.4985,2.1827e-05,1.67e-06,0.0,0 STARLINK-5560,1 55749U 23028J   24175.57233112  .00000167  00000-0  21827-4 0  9996,2 55749  70.0001  18.0706 0002971 265.5835  94.4985 14.98333207 72553,6950.183,96.107,574.113,569.983,0.0
55749.0,STARLINK-5560,PAYLOAD,2024-06-23 21:44:49,14.98333885,0.0002974,70.0001,17.2289,265.5384,94.5435,2.8655e-05,2.49e-06,0.0,0 STARLINK-5560,1 55749U 23028J   24175.90612980  .00000249  00000-0  28655-4 0  9994,2 55749  70.0001  17.2289 0002974 265.5384  94.5435 14.98333885 72601,6950.181,96.107,574.113,569.979,0.0
55749.0,STARLINK-5560,PAYLOAD,2024-06-23 23:20:57,14.98334794,0.0002998,70.0,17.0603,266.9135,93.1681,3.5538e-05,3.31e-06,0.0,0 STARLINK-5560,1 55749U 23028J   24175.97288893  .00000331  00000-0  35538-4 0  9993,2 55749  70.0000  17.0603 0002998 266.9135  93.1681 14.98334794 72612,6950.178,96.107,574.127,569.959,0.0
55749.0,STARLINK-5560,PAYLOAD,2024-06-24 13:46:10,14.98330534,0.0003023,70.0,15.5449,267.0031,93.0782,2.8676e-05,2.49e-06,0.0,0 STARLINK-5560,1 55749U 23028J   24176.57373107  .00000249  00000-0  28676-4 0  9996,2 55749  70.0000  15.5449 0003023 267.0031  93.0782 14.98330534 72709,6950.191,96.107,574.157,569.955,0.0
55749.0,STARLINK-5560,PAYLOAD,2024-06-24 20:10:42,14.98329687,0.0003051,70.0,14.8719,267.2305,92.8505,1.4879e-05,8.5e-07,0.0,0 STARLINK-5560,1 55749U 23028J   24176.84077191  .00000085  00000-0  14879-4 0  9998,2 55749  70.0000  14.8719 0003051 267.2305  92.8505 14.98329687 72749,6950.194,96.107,574.179,569.938,0.0
55749.0,STARLINK-5560,PAYLOAD,2024-06-24 21:46:50,14.98330857,0.000304,70.0,14.7037,267.267,92.8141,2.7911e-05,2.4e-06,0.0,0 STARLINK-5560,1 55749U 23028J   24176.90753078  .00000240  00000-0  27911-4 0  9994,2 55749  70.0000  14.7037 0003040 267.2670  92.8141 14.98330857 72752,6950.19,96.107,574.168,569.942,0.0
55749.0,STARLINK-5560,PAYLOAD,2024-06-25 13:48:11,14.98333377,0.0003003,70.0001,13.0211,270.7426,89.3388,1.6028e-05,9.8e-07,0.0,0 STARLINK-5560,1 55749U 23028J   24177.57512917  .00000098  00000-0  16028-4 0  9991,2 55749  70.0001  13.0211 0003003 270.7426  89.3388 14.98333377 72851,6950.182,96.107,574.135,569.96,0.0
55749.0,STARLINK-5560,PAYLOAD,2024-06-25 20:12:43,14.98334261,0.0002982,70.0002,12.3475,270.7298,89.3519,2.8581e-05,2.48e-06,0.0,0 STARLINK-5560,1 55749U 23028J   24177.84216760  .00000248  00000-0  28581-4 0  9992,2 55749  70.0002  12.3475 0002982 270.7298  89.3519 14.98334261 72891,6950.18,96.107,574.117,569.972,0.0
55749.0,STARLINK-5560,PAYLOAD,2024-06-25 21:48:51,14.98335477,0.0002966,70.0002,12.1793,270.8022,89.2797,4.2352e-05,4.12e-06,0.0,0 STARLINK-5560,1 55749U 23028J   24177.90892626  .00000412  00000-0  42352-4 0  9995,2 55749  70.0002  12.1793 0002966 270.8022  89.2797 14.98335477 72909,6950.176,96.107,574.102,569.98,0.0
55749.0,STARLINK-5560,PAYLOAD,2024-06-25 23:24:59,14.98336251,0.0002967,70.0003,12.0111,270.7457,89.3362,4.9536e-05,4.98e-06,0.0,0 STARLINK-5560,1 55749U 23028J   24177.97568536  .00000498  00000-0  49536-4 0  9997,2 55749  70.0003  12.0111 0002967 270.7457  89.3362 14.98336251 72916,6950.174,96.107,574.101,569.976,0.0
55749.0,STARLINK-5560,PAYLOAD,2024-06-27 05:51:32,14.98329992,0.0002845,70.0007,8.8127,273.561,86.5224,-7.9221e-06,-1.87e-06,0.0,0 STARLINK-5560,1 55749U 23028J   24179.24413040 -.00000187  00000-0 -79221-5 0  9990,2 55749  70.0007   8.8127 0002845 273.5610  86.5224 14.98329992 73109,6950.193,96.107,574.035,570.081,0.0
55749.0,STARLINK-5560,PAYLOAD,2024-06-27 21:52:53,14.98326034,0.0002879,70.0007,7.13,271.5015,88.5814,-5.6327e-05,-7.65e-06,0.0,0 STARLINK-5560,1 55749U 23028J   24179.91173501 -.00000765  00000-0 -56327-4 0  9992,2 55749  70.0007   7.1300 0002879 271.5015  88.5814 14.98326034 73200,6950.205,96.107,574.071,570.069,0.0
55749.0,STARLINK-5560,PAYLOAD,2024-06-28 05:53:33,14.98330682,0.0002984,70.0005,6.2882,272.4439,87.6379,-1.8171e-05,-3.1e-06,0.0,0 STARLINK-5560,1 55749U 23028J   24180.24553144 -.00000310  00000-0 -18171-4 0  9996,2 55749  70.0005   6.2882 0002984 272.4439  87.6379 14.98330682 73255,6950.191,96.107,574.13,569.982,0.0
